SL-3 R/B                
1 13403U 82079B   26067.09191973  .00010791  00000+0  43040-3 0  9998
2 13403  81.1482 194.9632 0025026 170.0559 190.1175 15.24772070377458
SL-14 R/B               
1 13553U 82092B   26067.15608669  .00000675  00000+0  73071-4 0  9999
2 13553  82.5697 142.8339 0019070 309.0117  76.2360 14.86664954328701
SL-3 R/B                
1 13819U 83010B   26067.07852481  .00024953  00000+0  50198-3 0  9998
2 13819  81.1066   4.2221 0018125  56.3076 303.9894 15.46287134357698
SL-3 R/B                
1 14208U 83075B   26067.12602616  .00016079  00000+0  42407-3 0  9995
2 14208  97.6144  71.6438 0019994 231.8866 128.0576 15.38372689329918
COSMOS 1536             
1 14699U 84013A   26067.14391524  .00008876  00000+0  36657-3 0  9993
2 14699  82.5424 109.3869 0012566 289.7296  70.2585 15.23801642272386
SL-14 R/B               
1 14820U 84027B   26067.00971030  .00000711  00000+0  78491-4 0  9998
2 14820  82.5385 246.5887 0017491 343.6045  16.4603 14.85974714247389
SL-8 R/B                
1 15483U 85006B   26067.00581309  .00000291  00000+0  10516-3 0  9994
2 15483  74.0432 264.2473 0018510 182.4592 330.5275 14.37781127153787
SL-12 R/B(2)            
1 15772U 85042D   26067.14590604  .00000036  00000+0  37445-4 0  9996
2 15772  71.1062  90.9907 0033327 130.6977 287.0285 14.21982030114172
SL-14 R/B               
1 15945U 85069B   26067.12963726  .00000789  00000+0  86367-4 0  9996
2 15945  82.5284  26.3996 0018327 192.9424 167.1325 14.86431255172602
SL-16 R/B               
1 16182U 85097B   26067.14234903 -.00000173  00000+0 -62608-4 0  9992
2 16182  71.0031 143.8120 0009939 261.6181 117.0443 14.16599243 87016
SL-14 R/B               
1 16496U 86006B   26067.03980411  .00000894  00000+0  92628-4 0  9994
2 16496  82.5234 261.2905 0075077 278.3878  80.8832 14.86812792148961
COSMOS 1743             
1 16719U 86034A   26067.10109065  .00046713  00000+0  61095-3 0  9992
2 16719  82.5293  75.4979 0001671 309.3376  50.7731 15.58430788180003
