CCSDS_OMM_VERS = 2.0
CREATION_DATE  = 
ORIGINATOR     = 

OBJECT_NAME    = SL-3 R/B
OBJECT_ID      = 1982-079B
CENTER_NAME    = EARTH
REF_FRAME      = TEME
TIME_SYSTEM    = UTC
MEAN_ELEMENT_THEORY = SGP/SGP4

EPOCH          = 2026-03-08T02:12:21.864672
MEAN_MOTION    = 15.24772070
ECCENTRICITY   = .0025026
INCLINATION    = 81.1482
RA_OF_ASC_NODE = 194.9632
ARG_OF_PERICENTER = 170.0559
MEAN_ANOMALY   = 190.1175

EPHEMERIS_TYPE = 0
CLASSIFICATION_TYPE = U
NORAD_CAT_ID   = 13403
ELEMENT_SET_NO = 999
REV_AT_EPOCH   = 37745
BSTAR          = .4304E-3
MEAN_MOTION_DOT = .10791E-3
MEAN_MOTION_DDOT = 0

CCSDS_OMM_VERS = 2.0
CREATION_DATE  = 
ORIGINATOR     = 

OBJECT_NAME    = SL-14 R/B
OBJECT_ID      = 1982-092B
CENTER_NAME    = EARTH
REF_FRAME      = TEME
TIME_SYSTEM    = UTC
MEAN_ELEMENT_THEORY = SGP/SGP4

EPOCH          = 2026-03-08T03:44:45.890016
MEAN_MOTION    = 14.86664954
ECCENTRICITY   = .001907
INCLINATION    = 82.5697
RA_OF_ASC_NODE = 142.8339
ARG_OF_PERICENTER = 309.0117
MEAN_ANOMALY   = 76.2360

EPHEMERIS_TYPE = 0
CLASSIFICATION_TYPE = U
NORAD_CAT_ID   = 13553
ELEMENT_SET_NO = 999
REV_AT_EPOCH   = 32870
BSTAR          = .73071E-4
MEAN_MOTION_DOT = .675E-5
MEAN_MOTION_DDOT = 0

CCSDS_OMM_VERS = 2.0
CREATION_DATE  = 
ORIGINATOR     = 

OBJECT_NAME    = SL-3 R/B
OBJECT_ID      = 1983-010B
CENTER_NAME    = EARTH
REF_FRAME      = TEME
TIME_SYSTEM    = UTC
MEAN_ELEMENT_THEORY = SGP/SGP4

EPOCH          = 2026-03-08T01:53:04.543584
MEAN_MOTION    = 15.46287134
ECCENTRICITY   = .0018125
INCLINATION    = 81.1066
RA_OF_ASC_NODE = 4.2221
ARG_OF_PERICENTER = 56.3076
MEAN_ANOMALY   = 303.9894

EPHEMERIS_TYPE = 0
CLASSIFICATION_TYPE = U
NORAD_CAT_ID   = 13819
ELEMENT_SET_NO = 999
REV_AT_EPOCH   = 35769
BSTAR          = .50198E-3
MEAN_MOTION_DOT = .24953E-3
MEAN_MOTION_DDOT = 0

CCSDS_OMM_VERS = 2.0
CREATION_DATE  = 
ORIGINATOR     = 

OBJECT_NAME    = SL-3 R/B
OBJECT_ID      = 1983-075B
CENTER_NAME    = EARTH
REF_FRAME      = TEME
TIME_SYSTEM    = UTC
MEAN_ELEMENT_THEORY = SGP/SGP4

EPOCH          = 2026-03-08T03:01:28.660224
MEAN_MOTION    = 15.38372689
ECCENTRICITY   = .0019994
INCLINATION    = 97.6144
RA_OF_ASC_NODE = 71.6438
ARG_OF_PERICENTER = 231.8866
MEAN_ANOMALY   = 128.0576

EPHEMERIS_TYPE = 0
CLASSIFICATION_TYPE = U
NORAD_CAT_ID   = 14208
ELEMENT_SET_NO = 999
REV_AT_EPOCH   = 32991
BSTAR          = .42407E-3
MEAN_MOTION_DOT = .16079E-3
MEAN_MOTION_DDOT = 0

CCSDS_OMM_VERS = 2.0
CREATION_DATE  = 
ORIGINATOR     = 

OBJECT_NAME    = COSMOS 1536
OBJECT_ID      = 1984-013A
CENTER_NAME    = EARTH
REF_FRAME      = TEME
TIME_SYSTEM    = UTC
MEAN_ELEMENT_THEORY = SGP/SGP4

EPOCH          = 2026-03-08T03:27:14.276736
MEAN_MOTION    = 15.23801642
ECCENTRICITY   = .0012566
INCLINATION    = 82.5424
RA_OF_ASC_NODE = 109.3869
ARG_OF_PERICENTER = 289.7296
MEAN_ANOMALY   = 70.2585

EPHEMERIS_TYPE = 0
CLASSIFICATION_TYPE = U
NORAD_CAT_ID   = 14699
ELEMENT_SET_NO = 999
REV_AT_EPOCH   = 27238
BSTAR          = .36657E-3
MEAN_MOTION_DOT = .8876E-4
MEAN_MOTION_DDOT = 0

CCSDS_OMM_VERS = 2.0
CREATION_DATE  = 
ORIGINATOR     = 

OBJECT_NAME    = SL-14 R/B
OBJECT_ID      = 1984-027B
CENTER_NAME    = EARTH
REF_FRAME      = TEME
TIME_SYSTEM    = UTC
MEAN_ELEMENT_THEORY = SGP/SGP4

EPOCH          = 2026-03-08T00:13:58.969920
MEAN_MOTION    = 14.85974714
ECCENTRICITY   = .0017491
INCLINATION    = 82.5385
RA_OF_ASC_NODE = 246.5887
ARG_OF_PERICENTER = 343.6045
MEAN_ANOMALY   = 16.4603

EPHEMERIS_TYPE = 0
CLASSIFICATION_TYPE = U
NORAD_CAT_ID   = 14820
ELEMENT_SET_NO = 999
REV_AT_EPOCH   = 24738
BSTAR          = .78491E-4
MEAN_MOTION_DOT = .711E-5
MEAN_MOTION_DDOT = 0

CCSDS_OMM_VERS = 2.0
CREATION_DATE  = 
ORIGINATOR     = 

OBJECT_NAME    = SL-8 R/B
OBJECT_ID      = 1985-006B
CENTER_NAME    = EARTH
REF_FRAME      = TEME
TIME_SYSTEM    = UTC
MEAN_ELEMENT_THEORY = SGP/SGP4

EPOCH          = 2026-03-08T00:08:22.250976
MEAN_MOTION    = 14.37781127
ECCENTRICITY   = .001851
INCLINATION    = 74.0432
RA_OF_ASC_NODE = 264.2473
ARG_OF_PERICENTER = 182.4592
MEAN_ANOMALY   = 330.5275

EPHEMERIS_TYPE = 0
CLASSIFICATION_TYPE = U
NORAD_CAT_ID   = 15483
ELEMENT_SET_NO = 999
REV_AT_EPOCH   = 15378
BSTAR          = .10516E-3
MEAN_MOTION_DOT = .291E-5
MEAN_MOTION_DDOT = 0

CCSDS_OMM_VERS = 2.0
CREATION_DATE  = 
ORIGINATOR     = 

OBJECT_NAME    = SL-12 R/B(2)
OBJECT_ID      = 1985-042D
CENTER_NAME    = EARTH
REF_FRAME      = TEME
TIME_SYSTEM    = UTC
MEAN_ELEMENT_THEORY = SGP/SGP4

EPOCH          = 2026-03-08T03:30:06.281856
MEAN_MOTION    = 14.21982030
ECCENTRICITY   = .0033327
INCLINATION    = 71.1062
RA_OF_ASC_NODE = 90.9907
ARG_OF_PERICENTER = 130.6977
MEAN_ANOMALY   = 287.0285

EPHEMERIS_TYPE = 0
CLASSIFICATION_TYPE = U
NORAD_CAT_ID   = 15772
ELEMENT_SET_NO = 999
REV_AT_EPOCH   = 11417
BSTAR          = .37445E-4
MEAN_MOTION_DOT = .36E-6
MEAN_MOTION_DDOT = 0

CCSDS_OMM_VERS = 2.0
CREATION_DATE  = 
ORIGINATOR     = 

OBJECT_NAME    = SL-14 R/B
OBJECT_ID      = 1985-069B
CENTER_NAME    = EARTH
REF_FRAME      = TEME
TIME_SYSTEM    = UTC
MEAN_ELEMENT_THEORY = SGP/SGP4

EPOCH          = 2026-03-08T03:06:40.659264
MEAN_MOTION    = 14.86431255
ECCENTRICITY   = .0018327
INCLINATION    = 82.5284
RA_OF_ASC_NODE = 26.3996
ARG_OF_PERICENTER = 192.9424
MEAN_ANOMALY   = 167.1325

EPHEMERIS_TYPE = 0
CLASSIFICATION_TYPE = U
NORAD_CAT_ID   = 15945
ELEMENT_SET_NO = 999
REV_AT_EPOCH   = 17260
BSTAR          = .86367E-4
MEAN_MOTION_DOT = .789E-5
MEAN_MOTION_DDOT = 0

CCSDS_OMM_VERS = 2.0
CREATION_DATE  = 
ORIGINATOR     = 

OBJECT_NAME    = SL-16 R/B
OBJECT_ID      = 1985-097B
CENTER_NAME    = EARTH
REF_FRAME      = TEME
TIME_SYSTEM    = UTC
MEAN_ELEMENT_THEORY = SGP/SGP4

EPOCH          = 2026-03-08T03:24:58.956192
MEAN_MOTION    = 14.16599243
ECCENTRICITY   = .0009939
INCLINATION    = 71.0031
RA_OF_ASC_NODE = 143.8120
ARG_OF_PERICENTER = 261.6181
MEAN_ANOMALY   = 117.0443

EPHEMERIS_TYPE = 0
CLASSIFICATION_TYPE = U
NORAD_CAT_ID   = 16182
ELEMENT_SET_NO = 999
REV_AT_EPOCH   = 8701
BSTAR          = -.62608E-4
MEAN_MOTION_DOT = -.173E-5
MEAN_MOTION_DDOT = 0

CCSDS_OMM_VERS = 2.0
CREATION_DATE  = 
ORIGINATOR     = 

OBJECT_NAME    = SL-14 R/B
OBJECT_ID      = 1986-006B
CENTER_NAME    = EARTH
REF_FRAME      = TEME
TIME_SYSTEM    = UTC
MEAN_ELEMENT_THEORY = SGP/SGP4

EPOCH          = 2026-03-08T00:57:19.075104
MEAN_MOTION    = 14.86812792
ECCENTRICITY   = .0075077
INCLINATION    = 82.5234
RA_OF_ASC_NODE = 261.2905
ARG_OF_PERICENTER = 278.3878
MEAN_ANOMALY   = 80.8832

EPHEMERIS_TYPE = 0
CLASSIFICATION_TYPE = U
NORAD_CAT_ID   = 16496
ELEMENT_SET_NO = 999
REV_AT_EPOCH   = 14896
BSTAR          = .92628E-4
MEAN_MOTION_DOT = .894E-5
MEAN_MOTION_DDOT = 0

CCSDS_OMM_VERS = 2.0
CREATION_DATE  = 
ORIGINATOR     = 

OBJECT_NAME    = COSMOS 1743
OBJECT_ID      = 1986-034A
CENTER_NAME    = EARTH
REF_FRAME      = TEME
TIME_SYSTEM    = UTC
MEAN_ELEMENT_THEORY = SGP/SGP4

EPOCH          = 2026-03-08T02:25:34.232160
MEAN_MOTION    = 15.58430788
ECCENTRICITY   = .0001671
INCLINATION    = 82.5293
RA_OF_ASC_NODE = 75.4979
ARG_OF_PERICENTER = 309.3376
MEAN_ANOMALY   = 50.7731

EPHEMERIS_TYPE = 0
CLASSIFICATION_TYPE = U
NORAD_CAT_ID   = 16719
ELEMENT_SET_NO = 999
REV_AT_EPOCH   = 18000
BSTAR          = .61095E-3
MEAN_MOTION_DOT = .46713E-3
MEAN_MOTION_DDOT = 0

